{
  "type": "FeatureCollection",
  "features": [
    {
      "type": "Feature",
      "properties": {
        "norad_id": 34971,
        "name": "COSMOS 2251 DEB",
        "group": "cosmos-2251-debris",
        "lat": 15.29939330877224,
        "lon": -72.61188365785533,
        "alt_km": 740.7877168083769,
        "timestamp": "2025-12-13T20:38:51.403567+00:00",
        "meta_object_name": "COSMOS 2251 DEB",
        "meta_object_id": "1993-036AFA",
        "meta_epoch": "2025-12-11T13:03:07.178112",
        "meta_mean_motion": 14.55631176,
        "meta_eccentricity": 0.00696698,
        "meta_inclination": 73.9786,
        "meta_ra_of_asc_node": 287.2832,
        "meta_arg_of_pericenter": 153.3092,
        "meta_mean_anomaly": 329.2446,
        "meta_ephemeris_type": 0,
        "meta_classification_type": "U",
        "meta_norad_cat_id": 34971,
        "meta_element_set_no": 999,
        "meta_rev_at_epoch": 66155,
        "meta_bstar": 0.00028423964,
        "meta_mean_motion_dot": 1.251e-05,
        "meta_mean_motion_ddot": 0,
        "tle_line1": "1 34971U 93036AFA 25345.54383308  .00001251  00000+0  28424-3 0  9999",
        "tle_line2": "2 34971  73.9786 287.2832 0069669 153.3092 329.2446 14.55631176661559"
      },
      "geometry": {
        "type": "Point",
        "coordinates": [
          -72.61188365785533,
          15.29939330877224
        ]
      }
    },
    {
      "type": "Feature",
      "properties": {
        "norad_id": 34972,
        "name": "COSMOS 2251 DEB",
        "group": "cosmos-2251-debris",
        "lat": -22.847975161434025,
        "lon": 40.72120928682915,
        "alt_km": 672.0234750174486,
        "timestamp": "2025-12-13T20:38:51.403578+00:00",
        "meta_object_name": "COSMOS 2251 DEB",
        "meta_object_id": "1993-036AFB",
        "meta_epoch": "2025-12-11T15:39:21.883968",
        "meta_mean_motion": 14.72853144,
        "meta_eccentricity": 0.00337724,
        "meta_inclination": 73.9883,
        "meta_ra_of_asc_node": 51.9818,
        "meta_arg_of_pericenter": 211.2794,
        "meta_mean_anomaly": 302.0025,
        "meta_ephemeris_type": 0,
        "meta_classification_type": "U",
        "meta_norad_cat_id": 34972,
        "meta_element_set_no": 999,
        "meta_rev_at_epoch": 87634,
        "meta_bstar": 0.0021673296,
        "meta_mean_motion_dot": 0.00013997,
        "meta_mean_motion_ddot": 0,
        "tle_line1": "1 34972U 93036AFB 25345.65233662  .00013997  00000+0  21673-2 0  9997",
        "tle_line2": "2 34972  73.9883  51.9818 0033772 211.2794 302.0025 14.72853144876344"
      },
      "geometry": {
        "type": "Point",
        "coordinates": [
          40.72120928682915,
          -22.847975161434025
        ]
      }
    },
    {
      "type": "Feature",
      "properties": {
        "norad_id": 34976,
        "name": "COSMOS 2251 DEB",
        "group": "cosmos-2251-debris",
        "lat": 73.31696059353861,
        "lon": 16.577250322574706,
        "alt_km": 635.1176449558898,
        "timestamp": "2025-12-13T20:38:51.403588+00:00",
        "meta_object_name": "COSMOS 2251 DEB",
        "meta_object_id": "1993-036AFF",
        "meta_epoch": "2025-12-13T07:56:41.548416",
        "meta_mean_motion": 14.76592606,
        "meta_eccentricity": 0.00477865,
        "meta_inclination": 74.0573,
        "meta_ra_of_asc_node": 305.0908,
        "meta_arg_of_pericenter": 351.7556,
        "meta_mean_anomaly": 160.4025,
        "meta_ephemeris_type": 0,
        "meta_classification_type": "U",
        "meta_norad_cat_id": 34976,
        "meta_element_set_no": 999,
        "meta_rev_at_epoch": 88282,
        "meta_bstar": 0.0027408178,
        "meta_mean_motion_dot": 0.00019521,
        "meta_mean_motion_ddot": 0,
        "tle_line1": "1 34976U 93036AFF 25347.33103644  .00019521  00000+0  27408-2 0  9995",
        "tle_line2": "2 34976  74.0573 305.0908 0047786 351.7556 160.4025 14.76592606882828"
      },
      "geometry": {
        "type": "Point",
        "coordinates": [
          16.577250322574706,
          73.31696059353861
        ]
      }
    },
    {
      "type": "Feature",
      "properties": {
        "norad_id": 34979,
        "name": "COSMOS 2251 DEB",
        "group": "cosmos-2251-debris",
        "lat": 34.01912435030122,
        "lon": 73.92115187829117,
        "alt_km": 661.3628283345333,
        "timestamp": "2025-12-13T20:38:51.403598+00:00",
        "meta_object_name": "COSMOS 2251 DEB",
        "meta_object_id": "1993-036AFJ",
        "meta_epoch": "2025-12-12T18:01:47.285472",
        "meta_mean_motion": 14.79355738,
        "meta_eccentricity": 0.00490418,
        "meta_inclination": 74.0395,
        "meta_ra_of_asc_node": 267.2405,
        "meta_arg_of_pericenter": 345.1365,
        "meta_mean_anomaly": 14.8366,
        "meta_ephemeris_type": 0,
        "meta_classification_type": "U",
        "meta_norad_cat_id": 34979,
        "meta_element_set_no": 999,
        "meta_rev_at_epoch": 88220,
        "meta_bstar": 0.0018975921,
        "meta_mean_motion_dot": 0.00014425,
        "meta_mean_motion_ddot": 0,
        "tle_line1": "1 34979U 93036AFJ 25346.75124173  .00014425  00000+0  18976-2 0  9991",
        "tle_line2": "2 34979  74.0395 267.2405 0049041 345.1365  14.8366 14.79355738882203"
      },
      "geometry": {
        "type": "Point",
        "coordinates": [
          73.92115187829117,
          34.01912435030122
        ]
      }
    },
    {
      "type": "Feature",
      "properties": {
        "norad_id": 34990,
        "name": "COSMOS 2251 DEB",
        "group": "cosmos-2251-debris",
        "lat": 71.61720587343197,
        "lon": 9.850927706552685,
        "alt_km": 753.1495267556966,
        "timestamp": "2025-12-13T20:38:51.403608+00:00",
        "meta_object_name": "COSMOS 2251 DEB",
        "meta_object_id": "1993-036AFN",
        "meta_epoch": "2025-12-11T11:35:34.713024",
        "meta_mean_motion": 14.42369611,
        "meta_eccentricity": 0.001637,
        "meta_inclination": 74.0455,
        "meta_ra_of_asc_node": 253.6657,
        "meta_arg_of_pericenter": 317.4187,
        "meta_mean_anomaly": 42.5699,
        "meta_ephemeris_type": 0,
        "meta_classification_type": "U",
        "meta_norad_cat_id": 34990,
        "meta_element_set_no": 999,
        "meta_rev_at_epoch": 87328,
        "meta_bstar": 0.00064071244,
        "meta_mean_motion_dot": 2.095e-05,
        "meta_mean_motion_ddot": 0,
        "tle_line1": "1 34990U 93036AFN 25345.48304066  .00002095  00000+0  64071-3 0  9992",
        "tle_line2": "2 34990  74.0455 253.6657 0016370 317.4187  42.5699 14.42369611873284"
      },
      "geometry": {
        "type": "Point",
        "coordinates": [
          9.850927706552685,
          71.61720587343197
        ]
      }
    },
    {
      "type": "Feature",
      "properties": {
        "norad_id": 34997,
        "name": "COSMOS 2251 DEB",
        "group": "cosmos-2251-debris",
        "lat": -72.28145676923388,
        "lon": -115.75857351497865,
        "alt_km": 677.8000554397959,
        "timestamp": "2025-12-13T20:38:51.403618+00:00",
        "meta_object_name": "COSMOS 2251 DEB",
        "meta_object_id": "1993-036AFV",
        "meta_epoch": "2025-12-12T15:07:37.525152",
        "meta_mean_motion": 14.4555903,
        "meta_eccentricity": 0.00978968,
        "meta_inclination": 73.8801,
        "meta_ra_of_asc_node": 311.4025,
        "meta_arg_of_pericenter": 286.4207,
        "meta_mean_anomaly": 72.6207,
        "meta_ephemeris_type": 0,
        "meta_classification_type": "U",
        "meta_norad_cat_id": 34997,
        "meta_element_set_no": 999,
        "meta_rev_at_epoch": 70745,
        "meta_bstar": 0.0024908472,
        "meta_mean_motion_dot": 9.311e-05,
        "meta_mean_motion_ddot": 0,
        "tle_line1": "1 34997U 93036AFV 25346.63029543  .00009311  00000+0  24908-2 0  9993",
        "tle_line2": "2 34997  73.8801 311.4025 0097896 286.4207  72.6207 14.45559030707458"
      },
      "geometry": {
        "type": "Point",
        "coordinates": [
          -115.75857351497865,
          -72.28145676923388
        ]
      }
    },
    {
      "type": "Feature",
      "properties": {
        "norad_id": 34998,
        "name": "COSMOS 2251 DEB",
        "group": "cosmos-2251-debris",
        "lat": 8.029072688081442,
        "lon": -24.43853735820396,
        "alt_km": 739.4254615647578,
        "timestamp": "2025-12-13T20:38:51.403628+00:00",
        "meta_object_name": "COSMOS 2251 DEB",
        "meta_object_id": "1993-036AFW",
        "meta_epoch": "2025-12-12T20:58:41.255904",
        "meta_mean_motion": 14.49281835,
        "meta_eccentricity": 0.00211297,
        "meta_inclination": 74.0099,
        "meta_ra_of_asc_node": 159.7316,
        "meta_arg_of_pericenter": 305.1196,
        "meta_mean_anomaly": 123.1096,
        "meta_ephemeris_type": 0,
        "meta_classification_type": "U",
        "meta_norad_cat_id": 34998,
        "meta_element_set_no": 999,
        "meta_rev_at_epoch": 87422,
        "meta_bstar": 0.00089404423,
        "meta_mean_motion_dot": 3.394e-05,
        "meta_mean_motion_ddot": 0,
        "tle_line1": "1 34998U 93036AFW 25346.87408861  .00003394  00000+0  89404-3 0  9992",
        "tle_line2": "2 34998  74.0099 159.7316 0021129 305.1196 123.1096 14.49281835874226"
      },
      "geometry": {
        "type": "Point",
        "coordinates": [
          -24.43853735820396,
          8.029072688081442
        ]
      }
    }
  ]
}